{
  "type": "FeatureCollection",
  "features": [
    {
      "type": "Feature",
      "properties": {
        "norad_id": 49537,
        "name": "COSMOS 1408 DEB",
        "group": "cosmos-1408-debris",
        "lat": 13.786909689528999,
        "lon": -76.92433720996084,
        "alt_km": 132.24252629386865,
        "timestamp": "2025-12-03T06:58:43.508155+00:00",
        "meta_object_name": "COSMOS 1408 DEB",
        "meta_object_id": "1982-092AA",
        "meta_epoch": "2025-12-01T10:29:21.651360",
        "meta_mean_motion": 16.33498888,
        "meta_eccentricity": 0.00127731,
        "meta_inclination": 82.5092,
        "meta_ra_of_asc_node": 107.1368,
        "meta_arg_of_pericenter": 299.8571,
        "meta_mean_anomaly": 60.1455,
        "meta_ephemeris_type": 0,
        "meta_classification_type": "U",
        "meta_norad_cat_id": 49537,
        "meta_element_set_no": 999,
        "meta_rev_at_epoch": 22403,
        "meta_bstar": 0.00094222941,
        "meta_mean_motion_dot": 0.05878558,
        "meta_mean_motion_ddot": -1.252052e-06,
        "tle_line1": "1 49537U 82092AA  25335.43705615  .05878558 -12521-5  94223-3 0  9994",
        "tle_line2": "2 49537  82.5092 107.1368 0012773 299.8571  60.1455 16.33498888224033"
      },
      "geometry": {
        "type": "Point",
        "coordinates": [
          -76.92433720996084,
          13.786909689528999
        ]
      }
    },
    {
      "type": "Feature",
      "properties": {
        "norad_id": 50032,
        "name": "COSMOS 1408 DEB",
        "group": "cosmos-1408-debris",
        "lat": 34.71544650031606,
        "lon": -116.99925045346505,
        "alt_km": 429.49424463279956,
        "timestamp": "2025-12-03T06:58:43.508179+00:00",
        "meta_object_name": "COSMOS 1408 DEB",
        "meta_object_id": "1982-092RU",
        "meta_epoch": "2025-12-02T16:22:04.175328",
        "meta_mean_motion": 15.45532179,
        "meta_eccentricity": 0.0014661,
        "meta_inclination": 82.5653,
        "meta_ra_of_asc_node": 68.8153,
        "meta_arg_of_pericenter": 248.0467,
        "meta_mean_anomaly": 111.9224,
        "meta_ephemeris_type": 0,
        "meta_classification_type": "U",
        "meta_norad_cat_id": 50032,
        "meta_element_set_no": 999,
        "meta_rev_at_epoch": 22448,
        "meta_bstar": 0.00014972,
        "meta_mean_motion_dot": 7.253e-05,
        "meta_mean_motion_ddot": 0,
        "tle_line1": "1 50032U 82092RU  25336.68199277  .00007253  00000+0  14972-3 0  9991",
        "tle_line2": "2 50032  82.5653  68.8153 0014661 248.0467 111.9224 15.45532179224483"
      },
      "geometry": {
        "type": "Point",
        "coordinates": [
          -116.99925045346505,
          34.71544650031606
        ]
      }
    },
    {
      "type": "Feature",
      "properties": {
        "norad_id": 50058,
        "name": "COSMOS 1408 DEB",
        "group": "cosmos-1408-debris",
        "lat": 81.89004514335883,
        "lon": -166.34141232176447,
        "alt_km": 362.3274508963077,
        "timestamp": "2025-12-03T06:58:43.508193+00:00",
        "meta_object_name": "COSMOS 1408 DEB",
        "meta_object_id": "1982-092SW",
        "meta_epoch": "2025-12-02T18:17:25.833984",
        "meta_mean_motion": 15.6319683,
        "meta_eccentricity": 0.0016308,
        "meta_inclination": 82.6133,
        "meta_ra_of_asc_node": 79.7764,
        "meta_arg_of_pericenter": 134.5458,
        "meta_mean_anomaly": 225.7135,
        "meta_ephemeris_type": 0,
        "meta_classification_type": "U",
        "meta_norad_cat_id": 50058,
        "meta_element_set_no": 999,
        "meta_rev_at_epoch": 22648,
        "meta_bstar": 0.00041916,
        "meta_mean_motion_dot": 0.00038682,
        "meta_mean_motion_ddot": 0,
        "tle_line1": "1 50058U 82092SW  25336.76210456  .00038682  00000+0  41916-3 0  9999",
        "tle_line2": "2 50058  82.6133  79.7764 0016308 134.5458 225.7135 15.63196830226480"
      },
      "geometry": {
        "type": "Point",
        "coordinates": [
          -166.34141232176447,
          81.89004514335883
        ]
      }
    },
    {
      "type": "Feature",
      "properties": {
        "norad_id": 50404,
        "name": "COSMOS 1408 DEB",
        "group": "cosmos-1408-debris",
        "lat": 49.81932734597609,
        "lon": 35.35934988610455,
        "alt_km": 550.1444053655568,
        "timestamp": "2025-12-03T06:58:43.508206+00:00",
        "meta_object_name": "COSMOS 1408 DEB",
        "meta_object_id": "1982-092ADS",
        "meta_epoch": "2025-12-02T17:40:59.460384",
        "meta_mean_motion": 15.11668848,
        "meta_eccentricity": 0.0176747,
        "meta_inclination": 82.2069,
        "meta_ra_of_asc_node": 225.2577,
        "meta_arg_of_pericenter": 233.6124,
        "meta_mean_anomaly": 124.8692,
        "meta_ephemeris_type": 0,
        "meta_classification_type": "U",
        "meta_norad_cat_id": 50404,
        "meta_element_set_no": 999,
        "meta_rev_at_epoch": 21042,
        "meta_bstar": 0.0033706,
        "meta_mean_motion_dot": 0.00084657,
        "meta_mean_motion_ddot": 0,
        "tle_line1": "1 50404U 82092ADS 25336.73679931  .00084657  00000+0  33706-2 0  9998",
        "tle_line2": "2 50404  82.2069 225.2577 0176747 233.6124 124.8692 15.11668848210424"
      },
      "geometry": {
        "type": "Point",
        "coordinates": [
          35.35934988610455,
          49.81932734597609
        ]
      }
    },
    {
      "type": "Feature",
      "properties": {
        "norad_id": 50621,
        "name": "COSMOS 1408 DEB",
        "group": "cosmos-1408-debris",
        "lat": 0.6880155755288531,
        "lon": 84.1004576189174,
        "alt_km": 422.0534203941561,
        "timestamp": "2025-12-03T06:58:43.508218+00:00",
        "meta_object_name": "COSMOS 1408 DEB",
        "meta_object_id": "1982-092ALR",
        "meta_epoch": "2025-12-02T18:37:38.144352",
        "meta_mean_motion": 15.5585774,
        "meta_eccentricity": 0.0028874,
        "meta_inclination": 82.5701,
        "meta_ra_of_asc_node": 84.5458,
        "meta_arg_of_pericenter": 188.9964,
        "meta_mean_anomaly": 171.0777,
        "meta_ephemeris_type": 0,
        "meta_classification_type": "U",
        "meta_norad_cat_id": 50621,
        "meta_element_set_no": 999,
        "meta_rev_at_epoch": 22095,
        "meta_bstar": 0.0004929,
        "meta_mean_motion_dot": 0.00034865,
        "meta_mean_motion_ddot": 0,
        "tle_line1": "1 50621U 82092ALR 25336.77613593  .00034865  00000+0  49290-3 0  9997",
        "tle_line2": "2 50621  82.5701  84.5458 0028874 188.9964 171.0777 15.55857740220952"
      },
      "geometry": {
        "type": "Point",
        "coordinates": [
          84.1004576189174,
          0.6880155755288531
        ]
      }
    }
  ]
}